{
  "type": "FeatureCollection",
  "features": [
    {
      "type": "Feature",
      "properties": {
        "norad_id": 66641,
        "name": "STARLINK-35923",
        "group": "last-30-days",
        "lat": 2.8943771384806043,
        "lon": 34.880203673183566,
        "alt_km": 347.5710062379121,
        "timestamp": "2025-12-06T14:35:35.911499+00:00",
        "meta_object_name": "STARLINK-35923",
        "meta_object_id": "2025-271AA",
        "meta_epoch": "2025-12-06T06:00:02.000160",
        "meta_mean_motion": 15.7417295,
        "meta_eccentricity": 4.033e-05,
        "meta_inclination": 53.1568,
        "meta_ra_of_asc_node": 218.8302,
        "meta_arg_of_pericenter": 60.0221,
        "meta_mean_anomaly": 246.0897,
        "meta_ephemeris_type": 0,
        "meta_classification_type": "U",
        "meta_norad_cat_id": 66641,
        "meta_element_set_no": 999,
        "meta_rev_at_epoch": 320,
        "meta_bstar": 0.0001956498,
        "meta_mean_motion_dot": 0.000281,
        "meta_mean_motion_ddot": 0,
        "tle_line1": "1 66641U 25271AA  25340.25002315  .00028100  00000+0  19565-3 0  9991",
        "tle_line2": "2 66641  53.1568 218.8302 0000403  60.0221 246.0897 15.74172950  3207"
      },
      "geometry": {
        "type": "Point",
        "coordinates": [
          34.880203673183566,
          2.8943771384806043
        ]
      }
    },
    {
      "type": "Feature",
      "properties": {
        "norad_id": 66642,
        "name": "STARLINK-35926",
        "group": "last-30-days",
        "lat": 4.429882492339065,
        "lon": 33.727568228486405,
        "alt_km": 347.31280866348243,
        "timestamp": "2025-12-06T14:35:35.911509+00:00",
        "meta_object_name": "STARLINK-35926",
        "meta_object_id": "2025-271AB",
        "meta_epoch": "2025-12-06T06:00:02.000160",
        "meta_mean_motion": 15.7417623,
        "meta_eccentricity": 4.444e-05,
        "meta_inclination": 53.1573,
        "meta_ra_of_asc_node": 218.835,
        "meta_arg_of_pericenter": 61.2283,
        "meta_mean_anomaly": 242.9503,
        "meta_ephemeris_type": 0,
        "meta_classification_type": "U",
        "meta_norad_cat_id": 66642,
        "meta_element_set_no": 999,
        "meta_rev_at_epoch": 296,
        "meta_bstar": 0.0003088392,
        "meta_mean_motion_dot": 0.00044817,
        "meta_mean_motion_ddot": 0,
        "tle_line1": "1 66642U 25271AB  25340.25002315  .00044817  00000+0  30884-3 0  9992",
        "tle_line2": "2 66642  53.1573 218.8350 0000444  61.2283 242.9503 15.74176230  2969"
      },
      "geometry": {
        "type": "Point",
        "coordinates": [
          33.727568228486405,
          4.429882492339065
        ]
      }
    },
    {
      "type": "Feature",
      "properties": {
        "norad_id": 66643,
        "name": "STARLINK-35918",
        "group": "last-30-days",
        "lat": 7.478308995388848,
        "lon": 31.41759151514373,
        "alt_km": 346.7316003929118,
        "timestamp": "2025-12-06T14:35:35.911519+00:00",
        "meta_object_name": "STARLINK-35918",
        "meta_object_id": "2025-271AC",
        "meta_epoch": "2025-12-06T06:00:02.000160",
        "meta_mean_motion": 15.74180719,
        "meta_eccentricity": 0.00014743,
        "meta_inclination": 53.1574,
        "meta_ra_of_asc_node": 218.8434,
        "meta_arg_of_pericenter": 85.2972,
        "meta_mean_anomaly": 215.0599,
        "meta_ephemeris_type": 0,
        "meta_classification_type": "U",
        "meta_norad_cat_id": 66643,
        "meta_element_set_no": 999,
        "meta_rev_at_epoch": 320,
        "meta_bstar": 5.6110333e-05,
        "meta_mean_motion_dot": 7.592e-05,
        "meta_mean_motion_ddot": 0,
        "tle_line1": "1 66643U 25271AC  25340.25002315  .00007592  00000+0  56110-4 0  9993",
        "tle_line2": "2 66643  53.1574 218.8434 0001474  85.2972 215.0599 15.74180719  3200"
      },
      "geometry": {
        "type": "Point",
        "coordinates": [
          31.41759151514373,
          7.478308995388848
        ]
      }
    },
    {
      "type": "Feature",
      "properties": {
        "norad_id": 66644,
        "name": "STARLINK-35938",
        "group": "last-30-days",
        "lat": 5.954800470465837,
        "lon": 32.57607181580782,
        "alt_km": 347.0180985728566,
        "timestamp": "2025-12-06T14:35:35.911529+00:00",
        "meta_object_name": "STARLINK-35938",
        "meta_object_id": "2025-271AD",
        "meta_epoch": "2025-12-06T06:00:02.000160",
        "meta_mean_motion": 15.74223461,
        "meta_eccentricity": 3.575e-05,
        "meta_inclination": 53.1571,
        "meta_ra_of_asc_node": 218.8392,
        "meta_arg_of_pericenter": 83.3955,
        "meta_mean_anomaly": 218.8518,
        "meta_ephemeris_type": 0,
        "meta_classification_type": "U",
        "meta_norad_cat_id": 66644,
        "meta_element_set_no": 999,
        "meta_rev_at_epoch": 320,
        "meta_bstar": -0.00026682629,
        "meta_mean_motion_dot": -0.00039578,
        "meta_mean_motion_ddot": 0,
        "tle_line1": "1 66644U 25271AD  25340.25002315 -.00039578  00000+0 -26683-3 0  9996",
        "tle_line2": "2 66644  53.1571 218.8392 0000357  83.3955 218.8518 15.74223461  3204"
      },
      "geometry": {
        "type": "Point",
        "coordinates": [
          32.57607181580782,
          5.954800470465837
        ]
      }
    },
    {
      "type": "Feature",
      "properties": {
        "norad_id": 66645,
        "name": "SHENZHOU-22",
        "group": "last-30-days",
        "lat": -36.187621931393004,
        "lon": -70.14456013142701,
        "alt_km": 395.0561669721237,
        "timestamp": "2025-12-06T14:35:35.911541+00:00",
        "meta_object_name": "SHENZHOU-22",
        "meta_object_id": "2025-272A",
        "meta_epoch": "2025-12-06T05:51:59.537376",
        "meta_mean_motion": 15.58781586,
        "meta_eccentricity": 0.00096041,
        "meta_inclination": 41.4683,
        "meta_ra_of_asc_node": 56.1283,
        "meta_arg_of_pericenter": 339.9163,
        "meta_mean_anomaly": 20.1296,
        "meta_ephemeris_type": 0,
        "meta_classification_type": "U",
        "meta_norad_cat_id": 66645,
        "meta_element_set_no": 999,
        "meta_rev_at_epoch": 26295,
        "meta_bstar": 0.00042196391,
        "meta_mean_motion_dot": 0.00033378,
        "meta_mean_motion_ddot": 0,
        "tle_line1": "1 66645U 25272A   25340.24443909  .00033378  00000+0  42196-3 0  9992",
        "tle_line2": "2 66645  41.4683  56.1283 0009604 339.9163  20.1296 15.58781586262951"
      },
      "geometry": {
        "type": "Point",
        "coordinates": [
          -70.14456013142701,
          -36.187621931393004
        ]
      }
    },
    {
      "type": "Feature",
      "properties": {
        "norad_id": 66646,
        "name": "CZ-2F R/B",
        "group": "last-30-days",
        "lat": -37.10628449059834,
        "lon": -72.66744715936508,
        "alt_km": 166.33132491243487,
        "timestamp": "2025-12-06T14:35:35.911553+00:00",
        "meta_object_name": "CZ-2F R/B",
        "meta_object_id": "2025-272B",
        "meta_epoch": "2025-12-06T06:14:24.329184",
        "meta_mean_motion": 16.29192753,
        "meta_eccentricity": 0.00476037,
        "meta_inclination": 41.4551,
        "meta_ra_of_asc_node": 50.6938,
        "meta_arg_of_pericenter": 215.5686,
        "meta_mean_anomaly": 144.2,
        "meta_ephemeris_type": 0,
        "meta_classification_type": "U",
        "meta_norad_cat_id": 66646,
        "meta_element_set_no": 999,
        "meta_rev_at_epoch": 179,
        "meta_bstar": 0.00054441108,
        "meta_mean_motion_dot": 0.03508525,
        "meta_mean_motion_ddot": 7.787033e-06,
        "tle_line1": "1 66646U 25272B   25340.26000381  .03508525  77870-5  54441-3 0  9993",
        "tle_line2": "2 66646  41.4551  50.6938 0047603 215.5686 144.2000 16.29192753  1797"
      },
      "geometry": {
        "type": "Point",
        "coordinates": [
          -72.66744715936508,
          -37.10628449059834
        ]
      }
    },
    {
      "type": "Feature",
      "properties": {
        "norad_id": 66647,
        "name": "COSMOS 2597 (RODNIK-S 22)",
        "group": "last-30-days",
        "lat": 66.25289767784172,
        "lon": -52.31636285627194,
        "alt_km": 1495.3650029527662,
        "timestamp": "2025-12-06T14:35:35.911564+00:00",
        "meta_object_name": "COSMOS 2597 (RODNIK-S 22)",
        "meta_object_id": "2025-273A",
        "meta_epoch": "2025-12-06T06:29:53.346048",
        "meta_mean_motion": 12.41951183,
        "meta_eccentricity": 0.00080397,
        "meta_inclination": 82.498,
        "meta_ra_of_asc_node": 290.4664,
        "meta_arg_of_pericenter": 304.4804,
        "meta_mean_anomaly": 55.5515,
        "meta_ephemeris_type": 0,
        "meta_classification_type": "U",
        "meta_norad_cat_id": 66647,
        "meta_element_set_no": 999,
        "meta_rev_at_epoch": 133,
        "meta_bstar": 0.00015847661,
        "meta_mean_motion_dot": 3.1e-07,
        "meta_mean_motion_ddot": 0,
        "tle_line1": "1 66647U 25273A   25340.27075632  .00000031  00000+0  15848-3 0  9996",
        "tle_line2": "2 66647  82.4980 290.4664 0008039 304.4804  55.5515 12.41951183  1334"
      },
      "geometry": {
        "type": "Point",
        "coordinates": [
          -52.31636285627194,
          66.25289767784172
        ]
      }
    }
  ]
}